SPACEBEE-131            
1 52181U 22033AA  23137.02037009  .00049054  00000+0  10568-2 0  9997
2 52181  97.3479 220.5094 0005573 256.4140 103.6487 15.44433495 62652
SPACEBEE-128            
1 52182U 22033AB  23136.94813763  .00052056  00000+0  10951-2 0  9999
2 52182  97.3500 220.5570 0005837 254.0938 105.9668 15.45120725 62644
SPACEBEE-133            
1 52183U 22033AC  23137.00684882  .00050623  00000+0  10828-2 0  9997
2 52183  97.3483 220.5348 0005672 254.7215 105.3406 15.44637729 62651
SPACEBEE-132            
1 52185U 22033AE  23136.66459319  .00065346  00000+0  12983-2 0  9997
2 52185  97.3477 220.5605 0005110 264.6672  95.3994 15.46739631 62619
SPACEBEE-137            
1 52186U 22033AF  23137.02191813  .00051682  00000+0  10986-2 0  9990
2 52186  97.3481 220.5262 0005725 254.7211 105.3405 15.44816213 62658
SPACEBEE-135            
1 52187U 22033AG  23137.12159062  .00057085  00000+0  11393-2 0  9998
2 52187  97.3486 221.0480 0005674 248.4148 111.6497 15.46641324 62690
SPACEBEE-143            
1 52394U 22047A   23136.46799949  .00023851  00000+0  94521-3 0  9992
2 52394  97.4222 220.4659 0008037 102.4622 257.7515 15.25370662 58859
SPACEBEENZ-15           
1 52395U 22047B   23136.96823870  .00034290  00000+0  11516-2 0  9990
2 52395  97.4210 221.9027 0007009 102.0991 258.1036 15.30750822 58999
SPACEBEENZ-16           
1 52396U 22047C   23137.17179847  .00035268  00000+0  11867-2 0  9998
2 52396  97.4209 222.0894 0006999 100.3627 259.8403 15.30683293 59024
SPACEBEENZ-17           
1 52397U 22047D   23136.66432886  .00038227  00000+0  12957-2 0  9996
2 52397  97.4207 221.5479 0007150 102.6997 257.5043 15.30427188 58945
SPACEBEENZ-18           
1 52398U 22047E   23137.45152595  .00034671  00000+0  11736-2 0  9994
2 52398  97.4210 222.3266 0006949 100.8667 259.3356 15.30494016 59067
SPACEBEE-140            
1 52399U 22047F   23137.20205250  .00025956  00000+0  96320-3 0  9994
2 52399  97.4222 221.6155 0007531  98.6088 261.6005 15.27541917 59010
SPACEBEE-141            
1 52400U 22047G   23137.22494012  .00021049  00000+0  83031-3 0  9999
2 52400  97.4225 221.2878 0008024  97.6877 262.5273 15.25551540 58980
SPACEBEE-142            
1 52401U 22047H   23136.21867705  .00023558  00000+0  94069-3 0  9991
2 52401  97.4218 220.1725 0008086 102.1925 258.0219 15.25118181 58818
SPACEBEENZ-20           
1 52402U 22047J   23137.20992660  .00033765  00000+0  11489-2 0  9996
2 52402  97.4197 222.0050 0007726 102.9732 257.2372 15.30325540 59021
SPACEBEENZ-22           
1 52403U 22047K   23136.94554389  .00028907  00000+0  10142-2 0  9996
2 52403  97.4203 221.6012 0008048 103.1919 257.0219 15.29357598 58978
SPACEBEENZ-19           
1 52404U 22047L   23136.99880470  .00032902  00000+0  11140-2 0  9994
2 52404  97.4207 221.8380 0007647 103.2983 256.9111 15.30492148 58993
SPACEBEENZ-21           
1 52405U 22047M   23137.22637346  .00032800  00000+0  11254-2 0  9997
2 52405  97.4202 221.9892 0007707 102.6009 257.6093 15.30061072 59027
SPACEBEE-148            
1 52406U 22047N   23136.70376868  .00028841  00000+0  10764-2 0  9994
2 52406  97.4218 221.0278 0008189 102.4752 257.7404 15.27326047 58918
SPACEBEE-149            
1 52407U 22047P   23137.23865621  .00021716  00000+0  85085-3 0  9997
2 52407  97.4218 221.2233 0008518 100.1916 260.0283 15.25765979 58972
SPACEBEE-153            
1 52408U 22047Q   23136.45119504  .00027636  00000+0  10682-2 0  9990
2 52408  97.4250 220.7524 0008662 112.7957 247.4197 15.26168407 58865
SPACEBEE-150            
1 52409U 22047R   23136.66943008  .00022259  00000+0  88349-3 0  9990
2 52409  97.4218 220.6235 0008552 103.1420 257.0773 15.25328767 58880
SPACEBEE-144            
1 52410U 22047S   23136.21347727  .00024574  00000+0  97848-3 0  9995
2 52410  97.4223 220.1940 0008099 103.7228 256.4912 15.25204706 58811
SPACEBEE-145            
1 52411U 22047T   23136.67913432  .00021963  00000+0  87376-3 0  9992
2 52411  97.4223 220.6337 0008013 102.7124 257.5010 15.25257318 58882
SPACEBEE-146            
1 52412U 22047U   23137.21876223  .00020979  00000+0  82984-3 0  9996
2 52412  97.4220 221.1204 0008043 100.9448 259.2696 15.25459786 58962
SPACEBEE-151            
1 52413U 22047V   23137.21391656  .00020355  00000+0  81147-3 0  9997
2 52413  97.4216 221.1109 0008634 102.0141 258.2065 15.25200008 58961
SPACEBEE-152            
1 52414U 22047W   23137.17593137  .00021617  00000+0  86579-3 0  9997
2 52414  97.4215 220.9963 0008604 102.0140 258.2063 15.25032291 58956
SPACEBEE-147            
1 52415U 22047X   23137.03987182  .00020401  00000+0  81948-3 0  9995
2 52415  97.4230 220.9255 0008055 102.6265 257.5874 15.24949521 58934
SPACEBEE-155            
1 52416U 22047Y   23136.22304126  .00024180  00000+0  98932-3 0  9996
2 52416  97.4200 219.7904 0009206 108.2749 251.9490 15.24286000 58799
SPACEBEE-154            
1 52417U 22047Z   23136.66702427  .00022038  00000+0  88649-3 0  9995
2 52417  97.4215 220.4649 0008666 105.9131 254.3062 15.24882038 58873
SPACEBEE-167            
1 55087U 23001CG  23137.07175016  .00012745  00000+0  61835-3 0  9998
2 55087  97.4795 197.4130 0016510 112.6401 247.6581 15.18506193 20375
SPACEBEE-163            
1 55089U 23001CJ  23137.05306955  .00017063  00000+0  81542-3 0  9991
2 55089  97.4789 197.4299 0016046 112.3456 247.9481 15.18971696 20373
SPACEBEE-164            
1 55091U 23001CL  23137.45122403  .00014388  00000+0  69151-3 0  9991
2 55091  97.4790 197.8198 0016719 111.2014 249.1008 15.18803318 20436
SPACEBEE-166            
1 55092U 23001CM  23136.63289534  .00017445  00000+0  82220-3 0  9999
2 55092  97.4791 197.0729 0018241 114.4434 245.8706 15.19413156 20316
SPACEBEE-165            
1 55094U 23001CP  23137.10983435  .00014769  00000+0  70567-3 0  9992
2 55094  97.4791 197.5047 0015863 111.3538 248.9391 15.19011572 20381
SPACEBEE-162            
1 55095U 23001CQ  23136.12644683  .00016519  00000+0  79140-3 0  9994
2 55095  97.4793 196.5246 0016899 114.4920 245.8079 15.18878318 20234
SPACEBEE-161            
1 55096U 23001CR  23137.11198944  .00014810  00000+0  70830-3 0  9998
2 55096  97.4794 197.5060 0016924 111.1941 249.1103 15.18963526 20384
SPACEBEE-160            
1 55097U 23001CS  23137.10852309  .00014672  00000+0  70081-3 0  9994
2 55097  97.4794 197.5097 0017036 111.4619 248.8434 15.19008177 20381
SPACEBEE-156            
1 55099U 23001CU  23136.90914556  .00014903  00000+0  71083-3 0  9996
2 55099  97.4791 197.3166 0016897 111.6619 248.6417 15.19056926 20352
SPACEBEE-158            
1 55100U 23001CV  23136.91162248  .00015000  00000+0  71726-3 0  9996
2 55100  97.4798 197.3141 0017461 112.2033 248.1056 15.18958094 20350
SPACEBEE-159            
1 55101U 23001CW  23137.41658926  .00014883  00000+0  70173-3 0  9999
2 55101  97.4792 197.8645 0018363 111.3779 248.9418 15.19432967 20434
SPACEBEE-157            
1 55102U 23001CX  23137.40787570  .00015733  00000+0  73593-3 0  9991
2 55102  97.4776 197.8626 0016374 112.7381 247.5586 15.19727574 20432
